start=new Date('2022-10-04T00:00:00.000Z').valueOf();
sats=[{"ELEMENT_SET_NO":"999","REV_AT_EPOCH":"3529","RA_OF_ASC_NODE":"194.8584","APOAPSIS":"541.064","FILE":"3590551","REF_FRAME":"TEME","SEMIMAJOR_AXIS":"6917.824","PERIAPSIS":"538.315","TIME_SYSTEM":"UTC","MEAN_MOTION":"15.08858329","RCS_SIZE":"LARGE","OBJECT_NAME":"STARLINK-3529","GP_ID":"214096068","EPOCH":"2022-10-03T12:15:04.948416","NORAD_CAT_ID":"51724","TLE_LINE2":"2 51724  53.2161 194.8584 0001987  48.1623 311.9538 15.08858329 35295","OBJECT_ID":"2022-016L","DECAY_DATE":null,"EPHEMERIS_TYPE":"0","OBJECT_TYPE":"PAYLOAD","MEAN_ELEMENT_THEORY":"SGP4","TLE_LINE1":"1 51724U 22016L   22276.51047394  .00018646  00000-0  11859-2 0  9993","SITE":"AFETR","PERIOD":"95.436","BSTAR":"0.00118590000000","ARG_OF_PERICENTER":"48.1623","CLASSIFICATION_TYPE":"U","COUNTRY_CODE":"US","LAUNCH_DATE":"2022-02-21","MEAN_MOTION_DOT":"0.00018646","ECCENTRICITY":"0.00019870","MEAN_ANOMALY":"311.9538","MEAN_MOTION_DDOT":"0.0000000000000","CENTER_NAME":"EARTH","INCLINATION":"53.2161"},{"SEMIMAJOR_AXIS":"6917.816","PERIAPSIS":"538.606","TIME_SYSTEM":"UTC","MEAN_MOTION":"15.08860903","RCS_SIZE":"LARGE","OBJECT_NAME":"STARLINK-3522","GP_ID":"214088896","ELEMENT_SET_NO":"999","REV_AT_EPOCH":"3424","RA_OF_ASC_NODE":"194.5114","APOAPSIS":"540.757","FILE":"3590320","REF_FRAME":"TEME","EPHEMERIS_TYPE":"0","MEAN_ELEMENT_THEORY":"SGP4","OBJECT_TYPE":"PAYLOAD","TLE_LINE1":"1 51725U 22016M   22276.58774094  .00000701  00000-0  62097-4 0  9990","SITE":"AFETR","PERIOD":"95.436","NORAD_CAT_ID":"51725","EPOCH":"2022-10-03T14:06:20.817216","TLE_LINE2":"2 51725  53.2173 194.5114 0001554  55.2042 304.9096 15.08860903 34245","OBJECT_ID":"2022-016M","DECAY_DATE":null,"COUNTRY_CODE":"US","LAUNCH_DATE":"2022-02-21","MEAN_MOTION_DOT":"0.00000701","ECCENTRICITY":"0.00015540","BSTAR":"0.00006209700000","ARG_OF_PERICENTER":"55.2042","CLASSIFICATION_TYPE":"U","CENTER_NAME":"EARTH","INCLINATION":"53.2173","MEAN_ANOMALY":"304.9096","MEAN_MOTION_DDOT":"0.0000000000000"},{"TLE_LINE2":"2 51726  53.2174 183.4896 0002026  52.1418 307.9757 15.08865890 34426","NORAD_CAT_ID":"51726","EPOCH":"2022-10-03T19:36:14.037696","DECAY_DATE":null,"OBJECT_ID":"2022-016N","OBJECT_TYPE":"PAYLOAD","MEAN_ELEMENT_THEORY":"SGP4","EPHEMERIS_TYPE":"0","PERIOD":"95.436","SITE":"AFETR","TLE_LINE1":"1 51726U 22016N   22276.81682914  .00013051  00000-0  83598-3 0  9996","FILE":"3590585","RA_OF_ASC_NODE":"183.4896","APOAPSIS":"541.068","REV_AT_EPOCH":"3442","ELEMENT_SET_NO":"999","REF_FRAME":"TEME","TIME_SYSTEM":"UTC","PERIAPSIS":"538.265","SEMIMAJOR_AXIS":"6917.801","OBJECT_NAME":"STARLINK-3527","GP_ID":"214119153","RCS_SIZE":"LARGE","MEAN_MOTION":"15.08865890","MEAN_MOTION_DDOT":"0.0000000000000","MEAN_ANOMALY":"307.9757","CENTER_NAME":"EARTH","INCLINATION":"53.2174","ARG_OF_PERICENTER":"52.1418","BSTAR":"0.00083598000000","CLASSIFICATION_TYPE":"U","MEAN_MOTION_DOT":"0.00013051","LAUNCH_DATE":"2022-02-21","ECCENTRICITY":"0.00020260","COUNTRY_CODE":"US"},{"MEAN_ANOMALY":"319.7343","MEAN_MOTION_DDOT":"0.0000000000000","CENTER_NAME":"EARTH","INCLINATION":"53.2150","BSTAR":"0.00037105000000","ARG_OF_PERICENTER":"40.3778","CLASSIFICATION_TYPE":"U","COUNTRY_CODE":"US","ECCENTRICITY":"0.00017360","LAUNCH_DATE":"2022-02-21","MEAN_MOTION_DOT":"0.00005626","NORAD_CAT_ID":"51727","EPOCH":"2022-10-03T12:20:22.507296","TLE_LINE2":"2 51727  53.2150 194.8356 0001736  40.3778 319.7343 15.08861503 34231","OBJECT_ID":"2022-016P","DECAY_DATE":null,"EPHEMERIS_TYPE":"0","OBJECT_TYPE":"PAYLOAD","MEAN_ELEMENT_THEORY":"SGP4","TLE_LINE1":"1 51727U 22016P   22276.51414939  .00005626  00000-0  37105-3 0  9996","SITE":"AFETR","PERIOD":"95.436","ELEMENT_SET_NO":"999","REV_AT_EPOCH":"3423","APOAPSIS":"540.881","RA_OF_ASC_NODE":"194.8356","FILE":"3590320","REF_FRAME":"TEME","SEMIMAJOR_AXIS":"6917.815","PERIAPSIS":"538.479","TIME_SYSTEM":"UTC","MEAN_MOTION":"15.08861503","RCS_SIZE":"LARGE","OBJECT_NAME":"STARLINK-3532","GP_ID":"214089391"},{"BSTAR":"0.00018365000000","ARG_OF_PERICENTER":"51.6268","CLASSIFICATION_TYPE":"U","COUNTRY_CODE":"US","MEAN_MOTION_DOT":"0.00002637","LAUNCH_DATE":"2022-02-21","ECCENTRICITY":"0.00019790","MEAN_ANOMALY":"308.4902","MEAN_MOTION_DDOT":"0.0000000000000","CENTER_NAME":"EARTH","INCLINATION":"53.2194","REV_AT_EPOCH":"3437","ELEMENT_SET_NO":"999","FILE":"3590320","RA_OF_ASC_NODE":"185.0008","APOAPSIS":"541.064","REF_FRAME":"TEME","PERIAPSIS":"538.325","SEMIMAJOR_AXIS":"6917.829","TIME_SYSTEM":"UTC","MEAN_MOTION":"15.08856658","GP_ID":"214088146","OBJECT_NAME":"STARLINK-3448","RCS_SIZE":"LARGE","NORAD_CAT_ID":"51728","EPOCH":"2022-10-03T11:28:41.621664","TLE_LINE2":"2 51728  53.2194 185.0008 0001979  51.6268 308.4902 15.08856658 34370","OBJECT_ID":"2022-016Q","DECAY_DATE":null,"EPHEMERIS_TYPE":"0","OBJECT_TYPE":"PAYLOAD","MEAN_ELEMENT_THEORY":"SGP4","TLE_LINE1":"1 51728U 22016Q   22276.47825951  .00002637  00000-0  18365-3 0  9998","PERIOD":"95.437","SITE":"AFETR"},{"OBJECT_ID":"2022-016R","DECAY_DATE":null,"NORAD_CAT_ID":"51729","EPOCH":"2022-10-03T18:06:07.989696","TLE_LINE2":"2 51729  53.2182 183.7633 0002083  43.0909 317.0246 15.08852298 34419","TLE_LINE1":"1 51729U 22016R   22276.75425914  .00001930  00000-0  13930-3 0  9993","SITE":"AFETR","PERIOD":"95.437","EPHEMERIS_TYPE":"0","OBJECT_TYPE":"PAYLOAD","MEAN_ELEMENT_THEORY":"SGP4","REF_FRAME":"TEME","ELEMENT_SET_NO":"999","REV_AT_EPOCH":"3441","APOAPSIS":"541.149","RA_OF_ASC_NODE":"183.7633","FILE":"3590585","MEAN_MOTION":"15.08852298","RCS_SIZE":"LARGE","GP_ID":"214120898","OBJECT_NAME":"STARLINK-3523","SEMIMAJOR_AXIS":"6917.843","PERIAPSIS":"538.267","TIME_SYSTEM":"UTC","MEAN_ANOMALY":"317.0246","MEAN_MOTION_DDOT":"0.0000000000000","INCLINATION":"53.2182","CENTER_NAME":"EARTH","CLASSIFICATION_TYPE":"U","BSTAR":"0.00013930000000","ARG_OF_PERICENTER":"43.0909","COUNTRY_CODE":"US","ECCENTRICITY":"0.00020830","LAUNCH_DATE":"2022-02-21","MEAN_MOTION_DOT":"0.00001930"},{"COUNTRY_CODE":"US","MEAN_MOTION_DOT":"0.00002428","LAUNCH_DATE":"2022-02-21","ECCENTRICITY":"0.00018360","BSTAR":"0.00017052000000","ARG_OF_PERICENTER":"57.1319","CLASSIFICATION_TYPE":"U","CENTER_NAME":"EARTH","INCLINATION":"53.2184","MEAN_ANOMALY":"302.9849","MEAN_MOTION_DDOT":"0.0000000000000","SEMIMAJOR_AXIS":"6917.832","PERIAPSIS":"538.427","TIME_SYSTEM":"UTC","MEAN_MOTION":"15.08855671","RCS_SIZE":"LARGE","GP_ID":"214119653","OBJECT_NAME":"STARLINK-3530","ELEMENT_SET_NO":"999","REV_AT_EPOCH":"3441","APOAPSIS":"540.968","RA_OF_ASC_NODE":"183.8590","FILE":"3590585","REF_FRAME":"TEME","EPHEMERIS_TYPE":"0","MEAN_ELEMENT_THEORY":"SGP4","OBJECT_TYPE":"PAYLOAD","TLE_LINE1":"1 51730U 22016S   22276.73586393  .00002428  00000-0  17052-3 0  9994","SITE":"AFETR","PERIOD":"95.437","NORAD_CAT_ID":"51730","EPOCH":"2022-10-03T17:39:38.643552","TLE_LINE2":"2 51730  53.2184 183.8590 0001836  57.1319 302.9849 15.08855671 34412","OBJECT_ID":"2022-016S","DECAY_DATE":null},{"TLE_LINE1":"1 51731U 22016T   22276.15074924 -.00002284  00000-0 -12541-3 0  9993","SITE":"AFETR","PERIOD":"95.437","EPHEMERIS_TYPE":"0","OBJECT_TYPE":"PAYLOAD","MEAN_ELEMENT_THEORY":"SGP4","OBJECT_ID":"2022-016T","DECAY_DATE":null,"NORAD_CAT_ID":"51731","EPOCH":"2022-10-03T03:37:04.734336","TLE_LINE2":"2 51731  53.2195 186.4759 0001674  59.3980 300.7177 15.08856016 35436","MEAN_MOTION":"15.08856016","RCS_SIZE":"LARGE","GP_ID":"214058359","OBJECT_NAME":"STARLINK-3514","SEMIMAJOR_AXIS":"6917.831","PERIAPSIS":"538.538","TIME_SYSTEM":"UTC","REF_FRAME":"TEME","ELEMENT_SET_NO":"999","REV_AT_EPOCH":"3543","RA_OF_ASC_NODE":"186.4759","APOAPSIS":"540.854","FILE":"3590003","INCLINATION":"53.2195","CENTER_NAME":"EARTH","MEAN_ANOMALY":"300.7177","MEAN_MOTION_DDOT":"0.0000000000000","COUNTRY_CODE":"US","ECCENTRICITY":"0.00016740","LAUNCH_DATE":"2022-02-21","MEAN_MOTION_DOT":"-0.00002284","CLASSIFICATION_TYPE":"U","BSTAR":"-0.00012541000000","ARG_OF_PERICENTER":"59.3980"},{"MEAN_ANOMALY":"308.4079","MEAN_MOTION_DDOT":"0.0000000000000","CENTER_NAME":"EARTH","INCLINATION":"53.2162","BSTAR":"0.00115570000000","ARG_OF_PERICENTER":"51.7053","CLASSIFICATION_TYPE":"U","COUNTRY_CODE":"US","MEAN_MOTION_DOT":"0.00018162","LAUNCH_DATE":"2022-02-21","ECCENTRICITY":"0.00015520","NORAD_CAT_ID":"51732","EPOCH":"2022-10-03T11:12:48.982176","TLE_LINE2":"2 51732  53.2162 185.0693 0001552  51.7053 308.4079 15.08859017 35514","OBJECT_ID":"2022-016U","DECAY_DATE":null,"EPHEMERIS_TYPE":"0","OBJECT_TYPE":"PAYLOAD","MEAN_ELEMENT_THEORY":"SGP4","TLE_LINE1":"1 51732U 22016U   22276.46723359  .00018162  00000-0  11557-2 0  9996","SITE":"AFETR","PERIOD":"95.436","ELEMENT_SET_NO":"999","REV_AT_EPOCH":"3551","RA_OF_ASC_NODE":"185.0693","APOAPSIS":"540.761","FILE":"3590320","REF_FRAME":"TEME","SEMIMAJOR_AXIS":"6917.822","PERIAPSIS":"538.614","TIME_SYSTEM":"UTC","MEAN_MOTION":"15.08859017","RCS_SIZE":"LARGE","GP_ID":"214088647","OBJECT_NAME":"STARLINK-3518"},{"RA_OF_ASC_NODE":"186.5068","APOAPSIS":"540.989","FILE":"3590320","ELEMENT_SET_NO":"999","REV_AT_EPOCH":"3432","REF_FRAME":"TEME","TIME_SYSTEM":"UTC","SEMIMAJOR_AXIS":"6917.843","PERIAPSIS":"538.428","RCS_SIZE":"LARGE","OBJECT_NAME":"STARLINK-3525","GP_ID":"214088897","MEAN_MOTION":"15.08852166","TLE_LINE2":"2 51733  53.2186 186.5068 0001851  48.1992 311.9158 15.08852166 34320","NORAD_CAT_ID":"51733","EPOCH":"2022-10-03T03:26:28.236768","DECAY_DATE":null,"OBJECT_ID":"2022-016V","OBJECT_TYPE":"PAYLOAD","MEAN_ELEMENT_THEORY":"SGP4","EPHEMERIS_TYPE":"0","SITE":"AFETR","PERIOD":"95.437","TLE_LINE1":"1 51733U 22016V   22276.14338237  .00002662  00000-0  18524-3 0  9999","ARG_OF_PERICENTER":"48.1992","BSTAR":"0.00018524000000","CLASSIFICATION_TYPE":"U","ECCENTRICITY":"0.00018510","LAUNCH_DATE":"2022-02-21","MEAN_MOTION_DOT":"0.00002662","COUNTRY_CODE":"US","MEAN_MOTION_DDOT":"0.0000000000000","MEAN_ANOMALY":"311.9158","CENTER_NAME":"EARTH","INCLINATION":"53.2186"}];
